#aV2015  2  1  0  0  0.00000000     288 DD+AD WGS84 FIT  NGA
## 1830      0.00000000   300.00000000 57054 0.0000000000000
+   31     1  2  3  4  5  6  7  8  9 10 11 12 13 14 15 16 17
+         18 19 20 21 22 23 24 25 27 28 29 30 31 32  0  0  0
+          0  0  0  0  0  0  0  0  0  0  0  0  0  0  0  0  0
+          0  0  0  0  0  0  0  0  0  0  0  0  0  0  0  0  0
+          0  0  0  0  0  0  0  0  0  0  0  0  0  0  0  0  0
++         2  2  2  2  2  2  2  2  2  2  2  2  2  2  2  2  2
++         2  2  2  2  2  2  2  2  2  2  2  2  2  2  0  0  0
++         0  0  0  0  0  0  0  0  0  0  0  0  0  0  0  0  0
++         0  0  0  0  0  0  0  0  0  0  0  0  0  0  0  0  0
++         0  0  0  0  0  0  0  0  0  0  0  0  0  0  0  0  0
%c cc cc ccc ccc cccc cccc cccc cccc ccccc ccccc ccccc ccccc
%c cc cc ccc ccc cccc cccc cccc cccc ccccc ccccc ccccc ccccc
%f  0.0000000  0.000000000  0.00000000000  0.000000000000000
%f  0.0000000  0.000000000  0.00000000000  0.000000000000000
%i    0    0    0    0      0      0      0      0         0
%i    0    0    0    0      0      0      0      0         0
/*      NGA, ST. LOUIS,MO.                                  
/*   EPHEMERIS COMPUTED FROM  1 DAYS OF DATA                
/*   EPOCHA SMOOTHER                                       
/* CCCCCCCCCCCCCCCCCCCCCCCCCCCCCCCCCCCCCCCCCCCCCCCCCCCCCCCCC
*  2015  2  1 11 45  0.00000000
P  1  17074.421632  13290.555074 -15566.829202     -9.511686                    
V  1 -19671.290193   -857.217036 -22213.900746      0.004284                    
P  2   7193.704098 -14762.493118  21142.775415    545.334617                    
V  2  25995.231385   3569.248944  -6931.237211      0.022766                    
P  3  13421.489315  22223.989387   5498.336120    184.306004                    
V  3     79.185823   7533.949339 -30712.916236      0.224482                    
P  4   6731.601569  15907.204638 -20553.641017     -6.522919                    
V  4 -25343.379091  -2048.978652  -9776.884049     -0.006104                    
P  5   -211.838336 -23390.035325  12360.315849   -284.982784                    
V  5   8782.478932  13526.919669  25810.932308      0.051636                    
P  6  21243.367577  -7237.848092  14185.677695     68.745205                    
V  6  17612.027951   4403.303780 -24128.910267      0.116513                    
P  7  25343.968085   7214.926671   4720.544649    436.577837                    
V  7  -6059.339772   1187.013725  31021.149903      0.032541                    
P  8  -8522.731973  12474.328852  21955.050807     17.412841                    
V  8 -26348.441514  -7603.298590  -6563.798968      0.002058                    
P  9  16256.273522   2791.884543  20810.923150    -73.373892                    
V  9 -15356.901894  21554.332114   9090.261262     -0.120738                    
P 10  13316.884725  -8083.841218  21103.117871   -161.395312                    
V 10  10926.577077  25570.300286   3268.951160     -0.017558                    
P 11  11016.686585  14231.518171 -20091.048797   -554.870881                    
V 11 -23878.321971   6292.905836  -8719.968839     -0.026493                    
P 12 -10723.422660 -24275.473594   2681.596134    265.966624                    
V 12    433.186738  -3854.886959 -31983.309604      0.029550                    
P 13  10692.759290 -21869.676676 -10920.663828    -84.183667                    
V 13  10781.748894  -8472.028771  27790.229962     -0.034850                    
P 14 -20652.884101  13781.985136  -8999.411396     91.447696                    
V 14   5964.562438 -10478.217575 -29138.876371     -0.035186                    
P 15  -3235.861250 -18959.708990 -18267.055067   -229.727703                    
V 15  14987.840767 -17869.055261  16282.361764     -0.022271                    
P 16   -930.436411  23062.068333  12740.339814   -160.090809                    
V 16  -7051.668761 -14885.925531  26668.701857      0.032405                    
P 17  20364.618246 -12478.824037 -11093.719998   -153.405674                    
V 17  -7549.057901  12706.524929 -27654.515644     -0.022209                    
P 18 -17857.464265  -6990.203089 -18025.723198    376.425513                    
V 18  -7717.398709 -22678.960623  15712.547174      0.027230                    
P 19  -3195.148478  20330.220769 -16702.760346   -498.899039                    
V 19 -15705.197397  14136.318482  20868.899770     -0.014879                    
P 20  18349.361216   6568.632846  17932.381802    284.996577                    
V 20   8517.655957  21662.596624 -16389.937943      0.041324                    
P 21 -26530.959035  -3618.372779    680.627096   -411.922109                    
V 21    449.165700  -3291.113253  30880.562831     -0.041489                    
P 22 -14200.466571   7254.170502 -21018.762297    313.582674                    
V 22 -11102.001082 -25007.084009  -1289.954317      0.042061                    
P 23   9372.941202  12860.103534  21345.125424    -85.747904                    
V 23 -17064.306790  20806.406446  -5497.138730     -0.026431                    
P 24 -14228.105432 -14130.794810 -17511.366140    -42.722324                    
V 24  22195.682993    882.831592 -18636.462249     -0.006299                    
P 25 -16548.012391 -15624.063258  13743.656035     -0.643105                    
V 25  -5155.847396 -16803.098220 -25009.131007     -0.026468                    
P 27 -11084.349604  22938.447788  -7352.235709     48.392274                    
V 27  -7705.954329   5873.114388  30066.516047      0.026675                    
P 28  14633.412379  -1008.979690 -21529.191559    416.487379                    
V 28   8919.775038  27346.782152   4554.558081      0.026564                    
P 29 -13798.191036  -6663.916457  21720.362131    589.459293                    
V 29  17565.855886 -21131.214375   4722.337396      0.024054                    
P 30  25863.888643   1033.250788  -6065.856053    -85.832017                    
V 30   6964.395611   4286.839161  30390.037596      0.007584                    
P 31 -19513.558530   8076.265523  16455.788960    324.264317                    
V 31 -19981.329827  -4579.538902 -21303.476395     -0.007818                    
P 32   3370.382046  25826.710625  -6513.785164   -234.067277                    
V 32  -5029.554126  -6952.416297 -29647.664778      0.089519                    
EOF
